ONEWEB-0054             
1 45158U 20008AD  26189.00487975  .00000495  00000+0  13824-2 0  9996
2 45158  87.8824  32.1202 0001930  84.1449 275.9898 13.10377163310751
ONEWEB-0056             
1 45159U 20008AE  26188.97584568 -.00000608  00000+0 -17790-2 0  9992
2 45159  87.8823  32.1191 0002091  85.3236 274.8131 13.10371445310906
ONEWEB-0057             
1 45160U 20008AF  26188.99310468 -.00000154  00000+0 -47854-3 0  9993
2 45160  87.8826  32.1276 0001753  68.9553 291.1762 13.10375090311079
ONEWEB-0058             
1 45161U 20008AG  26188.97989215 -.00000588  00000+0 -17217-2 0  9994
2 45161  87.8814  32.1348 0001773  93.7420 266.3910 13.10374843311140
ONEWEB-0059             
1 45162U 20008AH  26188.97614350 -.00000620  00000+0 -18131-2 0  9993
2 45162  87.8814  32.1345 0001576  81.3264 278.8042 13.10369995311043
ONEWEB-0062             
1 45163U 20008AJ  26188.99962819  .00000216  00000+0  58358-3 0  9997
2 45163  87.8827  32.1190 0001974  94.7917 265.3436 13.10376957310910
ONEWEB-0065             
1 45164U 20008AK  26188.95720728  .00000140  00000+0  36522-3 0  9990
2 45164  87.8820  32.1350 0001940  78.8114 281.3232 13.10371925310605
ONEWEB-0066             
1 45424U 20020A   26188.97572662  .00000535  00000+0  14727-2 0  9997
2 45424  87.8876  16.9309 0001708  92.2822 267.8501 13.11419904305408
ONEWEB-0067             
1 45425U 20020B   26188.47939050 -.00000491  00000+0 -14206-2 0  9996
2 45425  87.8900  16.9559 0001795  83.7463 276.3869 13.11425377305397
ONEWEB-0080             
1 45426U 20020C   26188.93685500 -.00000499  00000+0 -14450-2 0  9995
2 45426  87.8891  16.9373 0001971  98.3901 261.7451 13.11416433305428
ONEWEB-0090             
1 45427U 20020D   26188.96568924  .00000528  00000+0  14549-2 0  9999
2 45427  87.8889  16.9359 0001906  90.4277 269.7070 13.11417864305397
ONEWEB-0061             
1 45428U 20020E   26188.92131742 -.00000213  00000+0 -63656-3 0  9997
2 45428  87.8887  16.9285 0001825  93.6820 266.4516 13.11414559305345
ONEWEB-0081             
1 45429U 20020F   26188.90281698  .00000477  00000+0  13093-2 0  9991
2 45429  87.8883  16.9422 0001693  88.0984 272.0338 13.11415098305453
ONEWEB-0069             
1 45430U 20020G   26188.90465832  .00000452  00000+0  12387-2 0  9995
2 45430  87.8885  16.9451 0001640  90.2068 269.9248 13.11417558305389
ONEWEB-0031             
1 45431U 20020H   26188.94012384 -.00000439  00000+0 -12758-2 0  9999
2 45431  87.8878  16.9416 0001941  93.9944 266.1406 13.11417743305370
ONEWEB-0027             
1 45432U 20020J   26188.83978362  .00002483  00000+0  63564-2 0  9995
2 45432  87.9136   1.7552 0002274  93.9141 266.2251 13.17678313309079
ONEWEB-0064             
1 45433U 20020K   26188.93840287 -.00000601  00000+0 -17303-2 0  9993
2 45433  87.8882  16.9347 0001982  92.0173 268.1181 13.11417104305406
ONEWEB-0018             
1 45434U 20020L   26188.97049272  .00000554  00000+0  15278-2 0  9997
2 45434  87.8882  16.9276 0001541  96.7120 263.4183 13.11416569305350
ONEWEB-0083             
1 45435U 20020M   26188.96060087  .00000371  00000+0  10100-2 0  9990
2 45435  87.8888  16.9244 0001864  90.6607 269.4735 13.11418320305393
ONEWEB-0095             
1 45436U 20020N   26188.95211302 -.00000079  00000+0 -25737-3 0  9998
2 45436  87.8889  16.9348 0002454  79.9431 280.1973 13.11418089305397
ONEWEB-0092             
1 45437U 20020P   26188.98263535  .00003121  00000+0  87706-2 0  9999
2 45437  87.8887  16.9201 0001690  93.3847 266.7474 13.11397913305518
ONEWEB-0085             
1 45438U 20020Q   26188.96032375  .00000285  00000+0  76705-3 0  9990
2 45438  87.8881  16.9300 0001862  89.0248 271.1093 13.11418501305391
ONEWEB-0096             
1 45439U 20020R   26188.96215233  .00000361  00000+0  98272-3 0  9995
2 45439  87.8886  16.9268 0001973  87.5380 272.5974 13.11417629305385
ONEWEB-0037             
1 45440U 20020S   26188.98842382 -.00011771  00000+0 -33251-1 0  9993
2 45440  87.8898  16.8938 0001879  80.7150 279.4190 13.11497114305426
ONEWEB-0042             
1 45441U 20020T   26188.95184383 -.00000091  00000+0 -29141-3 0  9999
2 45441  87.8889  16.9252 0001804  86.8647 273.2687 13.11417967305389
ONEWEB-0098             
1 45442U 20020U   26188.94772475 -.00000424  00000+0 -12327-2 0  9991
2 45442  87.8887  16.9352 0001865  91.7178 268.4163 13.11417972305369
ONEWEB-0055             
1 45443U 20020V   26188.92640539 -.00000223  00000+0 -66512-3 0  9998
2 45443  87.8886  16.9378 0001908  93.3071 266.8275 13.11416449305336
ONEWEB-0093             
1 45444U 20020W   26188.91045792  .00000298  00000+0  80991-3 0  9995
2 45444  87.8886  16.9363 0001595  85.0497 275.0813 13.10890216305396
ONEWEB-0029             
1 45445U 20020X   26188.93346169 -.00000552  00000+0 -15942-2 0  9998
2 45445  87.8878  16.9371 0001588  88.4280 271.7030 13.11415471305375
ONEWEB-0068             
1 45446U 20020Y   26188.98237059  .00000407  00000+0  11134-2 0  9997
2 45446  87.8887  16.9241 0001660  89.5185 270.6133 13.11414782305320
ONEWEB-0046             
1 45447U 20020Z   26188.97402608  .00000568  00000+0  15654-2 0  9990
2 45447  87.8877  16.9302 0001760  81.0562 279.0765 13.11416706305338
