OBJECT_NAME,OBJECT_ID,EPOCH,MEAN_MOTION,ECCENTRICITY,INCLINATION,RA_OF_ASC_NODE,ARG_OF_PERICENTER,MEAN_ANOMALY,EPHEMERIS_TYPE,CLASSIFICATION_TYPE,NORAD_CAT_ID,ELEMENT_SET_NO,REV_AT_EPOCH,BSTAR,MEAN_MOTION_DOT,MEAN_MOTION_DDOT
ONEWEB-0054,2020-008AD,2026-07-08T00:07:01.610400,13.10377163,.000193,87.8824,32.1202,84.1449,275.9898,0,U,45158,999,31075,.13824E-2,.495E-5,0
ONEWEB-0056,2020-008AE,2026-07-07T23:25:13.066752,13.10371445,.0002091,87.8823,32.1191,85.3236,274.8131,0,U,45159,999,31090,-.1779E-2,-.608E-5,0
ONEWEB-0057,2020-008AF,2026-07-07T23:50:04.244352,13.10375090,.0001753,87.8826,32.1276,68.9553,291.1762,0,U,45160,999,31107,-.47854E-3,-.154E-5,0
ONEWEB-0058,2020-008AG,2026-07-07T23:31:02.681760,13.10374843,.0001773,87.8814,32.1348,93.7420,266.3910,0,U,45161,999,31114,-.17217E-2,-.588E-5,0
ONEWEB-0059,2020-008AH,2026-07-07T23:25:38.798400,13.10369995,.0001576,87.8814,32.1345,81.3264,278.8042,0,U,45162,999,31104,-.18131E-2,-.62E-5,0
ONEWEB-0062,2020-008AJ,2026-07-07T23:59:27.875616,13.10376957,.0001974,87.8827,32.1190,94.7917,265.3436,0,U,45163,999,31091,.58358E-3,.216E-5,0
ONEWEB-0065,2020-008AK,2026-07-07T22:58:22.708992,13.10371925,.000194,87.8820,32.1350,78.8114,281.3232,0,U,45164,999,31060,.36522E-3,.14E-5,0
ONEWEB-0066,2020-020A,2026-07-07T23:25:02.779968,13.11419904,.0001708,87.8876,16.9309,92.2822,267.8501,0,U,45424,999,30540,.14727E-2,.535E-5,0
ONEWEB-0067,2020-020B,2026-07-07T11:30:19.339200,13.11425377,.00017959,87.8900,16.9559,83.7463,276.3869,0,U,45425,999,30539,-.14206473E-2,-.491E-5,0
ONEWEB-0080,2020-020C,2026-07-07T22:29:04.272000,13.11416433,.0001971,87.8891,16.9373,98.3901,261.7451,0,U,45426,999,30542,-.1445E-2,-.499E-5,0
ONEWEB-0090,2020-020D,2026-07-07T23:10:35.550336,13.11417864,.0001906,87.8889,16.9359,90.4277,269.7070,0,U,45427,999,30539,.14549E-2,.528E-5,0
ONEWEB-0061,2020-020E,2026-07-07T22:06:41.825088,13.11414559,.0001825,87.8887,16.9285,93.6820,266.4516,0,U,45428,999,30534,-.63656E-3,-.213E-5,0
ONEWEB-0081,2020-020F,2026-07-07T21:40:03.387072,13.11415098,.0001693,87.8883,16.9422,88.0984,272.0338,0,U,45429,999,30545,.13093E-2,.477E-5,0
ONEWEB-0069,2020-020G,2026-07-07T21:42:42.478848,13.11417558,.000164,87.8885,16.9451,90.2068,269.9248,0,U,45430,999,30538,.12387E-2,.452E-5,0
ONEWEB-0031,2020-020H,2026-07-07T22:33:46.699776,13.11417743,.0001941,87.8878,16.9416,93.9944,266.1406,0,U,45431,999,30537,-.12758E-2,-.439E-5,0
ONEWEB-0027,2020-020J,2026-07-07T20:09:17.304768,13.17678313,.0002274,87.9136,1.7552,93.9141,266.2251,0,U,45432,999,30907,.63564E-2,.2483E-4,0
ONEWEB-0064,2020-020K,2026-07-07T22:31:18.007968,13.11417104,.0001982,87.8882,16.9347,92.0173,268.1181,0,U,45433,999,30540,-.17303E-2,-.601E-5,0
ONEWEB-0018,2020-020L,2026-07-07T23:17:30.571008,13.11416569,.0001541,87.8882,16.9276,96.7120,263.4183,0,U,45434,999,30535,.15278E-2,.554E-5,0
ONEWEB-0083,2020-020M,2026-07-07T23:03:15.915168,13.11418320,.0001864,87.8888,16.9244,90.6607,269.4735,0,U,45435,999,30539,.101E-2,.371E-5,0
ONEWEB-0095,2020-020N,2026-07-07T22:51:02.564928,13.11418089,.0002454,87.8889,16.9348,79.9431,280.1973,0,U,45436,999,30539,-.25737E-3,-.79E-6,0
ONEWEB-0092,2020-020P,2026-07-07T23:34:59.694240,13.11397913,.000169,87.8887,16.9201,93.3847,266.7474,0,U,45437,999,30551,.87706E-2,.3121E-4,0
ONEWEB-0085,2020-020Q,2026-07-07T23:02:51.972000,13.11418501,.0001862,87.8881,16.9300,89.0248,271.1093,0,U,45438,999,30539,.76705E-3,.285E-5,0
ONEWEB-0096,2020-020R,2026-07-07T23:05:29.961312,13.11417629,.0001973,87.8886,16.9268,87.5380,272.5974,0,U,45439,999,30538,.98272E-3,.361E-5,0
ONEWEB-0037,2020-020S,2026-07-07T23:43:19.818048,13.11497114,.0001879,87.8898,16.8938,80.7150,279.4190,0,U,45440,999,30542,-.33251E-1,-.11771E-3,0
ONEWEB-0042,2020-020T,2026-07-07T22:50:39.306912,13.11417967,.0001804,87.8889,16.9252,86.8647,273.2687,0,U,45441,999,30538,-.29141E-3,-.91E-6,0
ONEWEB-0098,2020-020U,2026-07-07T22:44:43.418400,13.11417972,.0001865,87.8887,16.9352,91.7178,268.4163,0,U,45442,999,30536,-.12327E-2,-.424E-5,0
ONEWEB-0055,2020-020V,2026-07-07T22:14:01.425696,13.11416449,.0001908,87.8886,16.9378,93.3071,266.8275,0,U,45443,999,30533,-.66512E-3,-.223E-5,0
ONEWEB-0093,2020-020W,2026-07-07T21:51:03.564288,13.10890216,.0001595,87.8886,16.9363,85.0497,275.0813,0,U,45444,999,30539,.80991E-3,.298E-5,0
ONEWEB-0029,2020-020X,2026-07-07T22:24:11.090016,13.11415471,.0001588,87.8878,16.9371,88.4280,271.7030,0,U,45445,999,30537,-.15942E-2,-.552E-5,0
ONEWEB-0068,2020-020Y,2026-07-07T23:34:36.818976,13.11414782,.000166,87.8887,16.9241,89.5185,270.6133,0,U,45446,999,30532,.11134E-2,.407E-5,0
ONEWEB-0046,2020-020Z,2026-07-07T23:22:35.853312,13.11416706,.000176,87.8877,16.9302,81.0562,279.0765,0,U,45447,999,30533,.15654E-2,.568E-5,0
